{
  "type": "FeatureCollection",
  "features": [
    {
      "type": "Feature",
      "properties": {
        "norad_id": 67103,
        "name": "STARLINK-36256",
        "group": "last-30-days",
        "lat": -4.95770817399674,
        "lon": -111.10371913960392,
        "alt_km": 294.68283402153156,
        "timestamp": "2025-12-22T22:44:19.654525+00:00",
        "meta_object_name": "STARLINK-36256",
        "meta_object_id": "2025-299B",
        "meta_epoch": "2025-12-22T14:00:01.999872",
        "meta_mean_motion": 15.94132409,
        "meta_eccentricity": 0.00019785,
        "meta_inclination": 42.9984,
        "meta_ra_of_asc_node": 256.5083,
        "meta_arg_of_pericenter": 272.2005,
        "meta_mean_anomaly": 149.3892,
        "meta_ephemeris_type": 0,
        "meta_classification_type": "U",
        "meta_norad_cat_id": 67103,
        "meta_element_set_no": 999,
        "meta_rev_at_epoch": 239,
        "meta_bstar": -0.0049802838,
        "meta_mean_motion_dot": -0.01905019,
        "meta_mean_motion_ddot": 0.001007891,
        "tle_line1": "1 67103U 25299B   25356.58335648 -.01905019  10079-2 -49803-2 0  9999",
        "tle_line2": "2 67103  42.9984 256.5083 0001978 272.2005 149.3892 15.94132409  2395"
      },
      "geometry": {
        "type": "Point",
        "coordinates": [
          -111.10371913960392,
          -4.95770817399674
        ]
      }
    },
    {
      "type": "Feature",
      "properties": {
        "norad_id": 67104,
        "name": "STARLINK-36258",
        "group": "last-30-days",
        "lat": -4.047335465580081,
        "lon": -110.12045448148498,
        "alt_km": 294.5653714563723,
        "timestamp": "2025-12-22T22:44:19.654535+00:00",
        "meta_object_name": "STARLINK-36258",
        "meta_object_id": "2025-299C",
        "meta_epoch": "2025-12-22T14:00:01.999872",
        "meta_mean_motion": 15.94052284,
        "meta_eccentricity": 0.00025666,
        "meta_inclination": 42.9982,
        "meta_ra_of_asc_node": 256.5049,
        "meta_arg_of_pericenter": 267.6981,
        "meta_mean_anomaly": 155.2473,
        "meta_ephemeris_type": 0,
        "meta_classification_type": "U",
        "meta_norad_cat_id": 67104,
        "meta_element_set_no": 999,
        "meta_rev_at_epoch": 239,
        "meta_bstar": -0.0045278749,
        "meta_mean_motion_dot": -0.01727033,
        "meta_mean_motion_ddot": 0.00083940537,
        "tle_line1": "1 67104U 25299C   25356.58335648 -.01727033  83941-3 -45279-2 0  9990",
        "tle_line2": "2 67104  42.9982 256.5049 0002566 267.6981 155.2473 15.94052284  2394"
      },
      "geometry": {
        "type": "Point",
        "coordinates": [
          -110.12045448148498,
          -4.047335465580081
        ]
      }
    },
    {
      "type": "Feature",
      "properties": {
        "norad_id": 67105,
        "name": "STARLINK-36261",
        "group": "last-30-days",
        "lat": -3.3292088129049544,
        "lon": -109.34712957119336,
        "alt_km": 294.54443440230716,
        "timestamp": "2025-12-22T22:44:19.654547+00:00",
        "meta_object_name": "STARLINK-36261",
        "meta_object_id": "2025-299D",
        "meta_epoch": "2025-12-22T14:00:01.999872",
        "meta_mean_motion": 15.94077946,
        "meta_eccentricity": 0.00023061,
        "meta_inclination": 42.9983,
        "meta_ra_of_asc_node": 256.5025,
        "meta_arg_of_pericenter": 265.1599,
        "meta_mean_anomaly": 158.8106,
        "meta_ephemeris_type": 0,
        "meta_classification_type": "U",
        "meta_norad_cat_id": 67105,
        "meta_element_set_no": 999,
        "meta_rev_at_epoch": 239,
        "meta_bstar": -0.0045213353,
        "meta_mean_motion_dot": -0.01726792,
        "meta_mean_motion_ddot": 0.00083940581,
        "tle_line1": "1 67105U 25299D   25356.58335648 -.01726792  83941-3 -45213-2 0  9990",
        "tle_line2": "2 67105  42.9983 256.5025 0002306 265.1599 158.8106 15.94077946  2394"
      },
      "geometry": {
        "type": "Point",
        "coordinates": [
          -109.34712957119336,
          -3.3292088129049544
        ]
      }
    },
    {
      "type": "Feature",
      "properties": {
        "norad_id": 67106,
        "name": "STARLINK-36259",
        "group": "last-30-days",
        "lat": -1.189242607954055,
        "lon": -107.05222756876623,
        "alt_km": 294.43758553560474,
        "timestamp": "2025-12-22T22:44:19.654558+00:00",
        "meta_object_name": "STARLINK-36259",
        "meta_object_id": "2025-299E",
        "meta_epoch": "2025-12-22T14:00:01.999872",
        "meta_mean_motion": 15.94093763,
        "meta_eccentricity": 0.00021173,
        "meta_inclination": 42.9982,
        "meta_ra_of_asc_node": 256.4947,
        "meta_arg_of_pericenter": 262.9906,
        "meta_mean_anomaly": 164.1128,
        "meta_ephemeris_type": 0,
        "meta_classification_type": "U",
        "meta_norad_cat_id": 67106,
        "meta_element_set_no": 999,
        "meta_rev_at_epoch": 239,
        "meta_bstar": -0.0045709265,
        "meta_mean_motion_dot": -0.01746867,
        "meta_mean_motion_ddot": 0.00085768826,
        "tle_line1": "1 67106U 25299E   25356.58335648 -.01746867  85769-3 -45709-2 0  9996",
        "tle_line2": "2 67106  42.9982 256.4947 0002117 262.9906 164.1128 15.94093763  2392"
      },
      "geometry": {
        "type": "Point",
        "coordinates": [
          -107.05222756876623,
          -1.189242607954055
        ]
      }
    },
    {
      "type": "Feature",
      "properties": {
        "norad_id": 67107,
        "name": "STARLINK-36196",
        "group": "last-30-days",
        "lat": -2.3373237709558743,
        "lon": -108.2820886609328,
        "alt_km": 294.5319985446504,
        "timestamp": "2025-12-22T22:44:19.654570+00:00",
        "meta_object_name": "STARLINK-36196",
        "meta_object_id": "2025-299F",
        "meta_epoch": "2025-12-22T14:00:01.999872",
        "meta_mean_motion": 15.94093132,
        "meta_eccentricity": 0.00019543,
        "meta_inclination": 42.9984,
        "meta_ra_of_asc_node": 256.4989,
        "meta_arg_of_pericenter": 261.8297,
        "meta_mean_anomaly": 163.5826,
        "meta_ephemeris_type": 0,
        "meta_classification_type": "U",
        "meta_norad_cat_id": 67107,
        "meta_element_set_no": 999,
        "meta_rev_at_epoch": 239,
        "meta_bstar": -0.0045205466,
        "meta_mean_motion_dot": -0.01727746,
        "meta_mean_motion_ddot": 0.00084039308,
        "tle_line1": "1 67107U 25299F   25356.58335648 -.01727746  84039-3 -45205-2 0  9992",
        "tle_line2": "2 67107  42.9984 256.4989 0001954 261.8297 163.5826 15.94093132  2398"
      },
      "geometry": {
        "type": "Point",
        "coordinates": [
          -108.2820886609328,
          -2.3373237709558743
        ]
      }
    },
    {
      "type": "Feature",
      "properties": {
        "norad_id": 67108,
        "name": "STARLINK-36208",
        "group": "last-30-days",
        "lat": -0.06975346526933415,
        "lon": -105.854688124962,
        "alt_km": 294.1276611041367,
        "timestamp": "2025-12-22T22:44:19.654580+00:00",
        "meta_object_name": "STARLINK-36208",
        "meta_object_id": "2025-299G",
        "meta_epoch": "2025-12-22T14:00:01.999872",
        "meta_mean_motion": 15.94082659,
        "meta_eccentricity": 0.00020929,
        "meta_inclination": 42.9985,
        "meta_ra_of_asc_node": 256.4905,
        "meta_arg_of_pericenter": 267.0292,
        "meta_mean_anomaly": 161.7049,
        "meta_ephemeris_type": 0,
        "meta_classification_type": "U",
        "meta_norad_cat_id": 67108,
        "meta_element_set_no": 999,
        "meta_rev_at_epoch": 239,
        "meta_bstar": -0.0044233491,
        "meta_mean_motion_dot": -0.01690185,
        "meta_mean_motion_ddot": 0.00080685064,
        "tle_line1": "1 67108U 25299G   25356.58335648 -.01690185  80685-3 -44233-2 0  9992",
        "tle_line2": "2 67108  42.9985 256.4905 0002092 267.0292 161.7049 15.94082659  2394"
      },
      "geometry": {
        "type": "Point",
        "coordinates": [
          -105.854688124962,
          -0.06975346526933415
        ]
      }
    },
    {
      "type": "Feature",
      "properties": {
        "norad_id": 67109,
        "name": "STARLINK-35764",
        "group": "last-30-days",
        "lat": 1.174430841116497,
        "lon": -104.52392277273894,
        "alt_km": 293.88592944001357,
        "timestamp": "2025-12-22T22:44:19.654593+00:00",
        "meta_object_name": "STARLINK-35764",
        "meta_object_id": "2025-299H",
        "meta_epoch": "2025-12-22T14:00:01.999872",
        "meta_mean_motion": 15.9407586,
        "meta_eccentricity": 0.00017434,
        "meta_inclination": 42.9985,
        "meta_ra_of_asc_node": 256.4857,
        "meta_arg_of_pericenter": 271.0503,
        "meta_mean_anomaly": 159.5142,
        "meta_ephemeris_type": 0,
        "meta_classification_type": "U",
        "meta_norad_cat_id": 67109,
        "meta_element_set_no": 999,
        "meta_rev_at_epoch": 228,
        "meta_bstar": -0.0043815686,
        "meta_mean_motion_dot": -0.01673712,
        "meta_mean_motion_ddot": 0.00079233656,
        "tle_line1": "1 67109U 25299H   25356.58335648 -.01673712  79234-3 -43816-2 0  9994",
        "tle_line2": "2 67109  42.9985 256.4857 0001743 271.0503 159.5142 15.94075860  2286"
      },
      "geometry": {
        "type": "Point",
        "coordinates": [
          -104.52392277273894,
          1.174430841116497
        ]
      }
    }
  ]
}